{
  "norad_id": 65575,
  "name": "PRAETORIAN SDA_612",
  "history": [
    {
      "epoch": "2026-05-03T18:19:10.060896Z",
      "apogee_km": 952.4799325661561,
      "perigee_km": 939.7094022308793,
      "latitude_deg": 8.883333959892255e-05,
      "longitude_deg": -84.74123734303753,
      "height_km": 944.090856217277,
      "semi_major_axis_km": 7324.231667398517,
      "eccentricity": 0.0008718,
      "inclination_deg": 81.3045,
      "raan_deg": 51.713,
      "arg_perigee_deg": 319.7813,
      "mean_anomaly_deg": 40.2699,
      "mean_motion_rev_day": 13.85031507
    }
  ]
}